start=new Date('2021-12-20T00:00:00.000Z').valueOf();
sats=[{"TLE_LINE1":"1 47901U 21021AT  21353.70722282  .00000995  00000-0  85674-4 0  9998","TLE_LINE2":"2 47901  53.0565 339.3513 0001805  62.9931 297.1242 15.06401362 44067","COUNTRY_CODE":"US","BSTAR":"0.00008567400000","SITE":"AFETR","MEAN_MOTION":"15.06401362","ELEMENT_SET_NO":"999","RA_OF_ASC_NODE":"339.3513","FILE":"3244825","OBJECT_NAME":"STARLINK-2361","PERIOD":"95.592","GP_ID":"192040063","CENTER_NAME":"EARTH","MEAN_MOTION_DOT":"0.00000995","DECAY_DATE":null,"MEAN_ANOMALY":"297.1242","LAUNCH_DATE":"2021-03-14","MEAN_ELEMENT_THEORY":"SGP4","INCLINATION":"53.0565","REF_FRAME":"TEME","NORAD_CAT_ID":"47901","OBJECT_TYPE":"PAYLOAD","APOAPSIS":"548.459","REV_AT_EPOCH":"4406","EPHEMERIS_TYPE":"0","RCS_SIZE":"LARGE","OBJECT_ID":"2021-021AT","ECCENTRICITY":"0.00018050","TIME_SYSTEM":"UTC","ARG_OF_PERICENTER":"62.9931","SEMIMAJOR_AXIS":"6925.344","PERIAPSIS":"545.959","CLASSIFICATION_TYPE":"U","MEAN_MOTION_DDOT":"0.0000000000000","EPOCH":"2021-12-19T16:58:24.051648"},{"REV_AT_EPOCH":"4386","EPHEMERIS_TYPE":"0","RCS_SIZE":"LARGE","OBJECT_ID":"2021-021AU","ARG_OF_PERICENTER":"52.1354","ECCENTRICITY":"0.00016220","TIME_SYSTEM":"UTC","SEMIMAJOR_AXIS":"6925.346","PERIAPSIS":"546.088","CLASSIFICATION_TYPE":"U","MEAN_MOTION_DDOT":"0.0000000000000","EPOCH":"2021-12-19T11:59:52.465056","MEAN_ANOMALY":"307.9781","MEAN_ELEMENT_THEORY":"SGP4","LAUNCH_DATE":"2021-03-14","INCLINATION":"53.0562","NORAD_CAT_ID":"47902","REF_FRAME":"TEME","APOAPSIS":"548.335","OBJECT_TYPE":"PAYLOAD","MEAN_MOTION":"15.06400755","ELEMENT_SET_NO":"999","FILE":"3244588","RA_OF_ASC_NODE":"0.2741","PERIOD":"95.592","OBJECT_NAME":"STARLINK-2362","GP_ID":"192011479","CENTER_NAME":"EARTH","MEAN_MOTION_DOT":"0.00000833","DECAY_DATE":null,"TLE_LINE1":"1 47902U 21021AU  21353.49991279  .00000833  00000-0  74807-4 0  9996","TLE_LINE2":"2 47902  53.0562   0.2741 0001622  52.1354 307.9781 15.06400755 43869","COUNTRY_CODE":"US","BSTAR":"0.00007480700000","SITE":"AFETR"},{"OBJECT_ID":"2021-021AV","ARG_OF_PERICENTER":"58.6715","TIME_SYSTEM":"UTC","ECCENTRICITY":"0.00019180","RCS_SIZE":"LARGE","EPHEMERIS_TYPE":"0","REV_AT_EPOCH":"4440","EPOCH":"2021-12-19T15:45:26.997408","MEAN_MOTION_DDOT":"0.0000000000000","CLASSIFICATION_TYPE":"U","PERIAPSIS":"545.857","SEMIMAJOR_AXIS":"6925.320","INCLINATION":"53.0556","LAUNCH_DATE":"2021-03-14","MEAN_ELEMENT_THEORY":"SGP4","MEAN_ANOMALY":"301.4461","OBJECT_TYPE":"PAYLOAD","APOAPSIS":"548.513","REF_FRAME":"TEME","NORAD_CAT_ID":"47903","RA_OF_ASC_NODE":"339.5912","FILE":"3244825","ELEMENT_SET_NO":"999","MEAN_MOTION":"15.06409357","MEAN_MOTION_DOT":"0.00001170","DECAY_DATE":null,"GP_ID":"192041065","CENTER_NAME":"EARTH","OBJECT_NAME":"STARLINK-2363","PERIOD":"95.592","TLE_LINE2":"2 47903  53.0556 339.5912 0001918  58.6715 301.4461 15.06409357 44403","TLE_LINE1":"1 47903U 21021AV  21353.65656247  .00001170  00000-0  97427-4 0  9996","SITE":"AFETR","COUNTRY_CODE":"US","BSTAR":"0.00009742700000"},{"ELEMENT_SET_NO":"999","MEAN_MOTION":"15.06389811","RA_OF_ASC_NODE":"340.7874","FILE":"3244588","GP_ID":"192012481","CENTER_NAME":"EARTH","OBJECT_NAME":"STARLINK-2364","PERIOD":"95.593","DECAY_DATE":null,"MEAN_MOTION_DOT":"-0.00000826","TLE_LINE1":"1 47904U 21021AW  21353.38749778 -.00000826  00000-0 -36583-4 0  9994","TLE_LINE2":"2 47904  53.0564 340.7874 0001610  65.7955 294.3202 15.06389811 44009","BSTAR":"-0.00003658300000","COUNTRY_CODE":"US","SITE":"AFETR","EPHEMERIS_TYPE":"0","REV_AT_EPOCH":"4400","OBJECT_ID":"2021-021AW","TIME_SYSTEM":"UTC","ECCENTRICITY":"0.00016100","ARG_OF_PERICENTER":"65.7955","RCS_SIZE":"LARGE","PERIAPSIS":"546.130","CLASSIFICATION_TYPE":"U","SEMIMAJOR_AXIS":"6925.380","EPOCH":"2021-12-19T09:17:59.808192","MEAN_MOTION_DDOT":"0.0000000000000","MEAN_ANOMALY":"294.3202","INCLINATION":"53.0564","LAUNCH_DATE":"2021-03-14","MEAN_ELEMENT_THEORY":"SGP4","REF_FRAME":"TEME","NORAD_CAT_ID":"47904","OBJECT_TYPE":"PAYLOAD","APOAPSIS":"548.360"},{"REV_AT_EPOCH":"4413","EPHEMERIS_TYPE":"0","RCS_SIZE":"LARGE","ECCENTRICITY":"0.00019630","OBJECT_ID":"2021-021AX","ARG_OF_PERICENTER":"61.6208","TIME_SYSTEM":"UTC","SEMIMAJOR_AXIS":"6925.323","PERIAPSIS":"545.829","CLASSIFICATION_TYPE":"U","MEAN_MOTION_DDOT":"0.0000000000000","EPOCH":"2021-12-19T09:12:41.027616","MEAN_ANOMALY":"298.4979","INCLINATION":"53.0572","LAUNCH_DATE":"2021-03-14","MEAN_ELEMENT_THEORY":"SGP4","REF_FRAME":"TEME","NORAD_CAT_ID":"47905","OBJECT_TYPE":"PAYLOAD","APOAPSIS":"548.547","MEAN_MOTION":"15.06408330","ELEMENT_SET_NO":"999","RA_OF_ASC_NODE":"340.8102","FILE":"3244588","OBJECT_NAME":"STARLINK-2365","PERIOD":"95.592","GP_ID":"192012232","CENTER_NAME":"EARTH","MEAN_MOTION_DOT":"0.00001250","DECAY_DATE":null,"TLE_LINE1":"1 47905U 21021AX  21353.38380819  .00001250  00000-0  10279-3 0  9995","TLE_LINE2":"2 47905  53.0572 340.8102 0001963  61.6208 298.4979 15.06408330 44139","BSTAR":"0.00010279000000","COUNTRY_CODE":"US","SITE":"AFETR"},{"MEAN_ELEMENT_THEORY":"SGP4","LAUNCH_DATE":"2021-03-14","INCLINATION":"53.0504","MEAN_ANOMALY":"299.4623","OBJECT_TYPE":"PAYLOAD","APOAPSIS":"340.841","REF_FRAME":"TEME","NORAD_CAT_ID":"47906","ECCENTRICITY":"0.00016830","OBJECT_ID":"2021-021AY","ARG_OF_PERICENTER":"60.6564","TIME_SYSTEM":"UTC","RCS_SIZE":"LARGE","EPHEMERIS_TYPE":"0","REV_AT_EPOCH":"4506","EPOCH":"2021-12-19T06:19:39.099072","MEAN_MOTION_DDOT":"0.0000000000000","PERIAPSIS":"338.580","CLASSIFICATION_TYPE":"U","SEMIMAJOR_AXIS":"6717.845","TLE_LINE2":"2 47906  53.0504 273.2931 0001683  60.6564 299.4623 15.76731635 45061","TLE_LINE1":"1 47906U 21021AY  21353.26364698  .00012017  00000-0  77303-4 0  9995","SITE":"AFETR","COUNTRY_CODE":"US","BSTAR":"0.00007730300000","RA_OF_ASC_NODE":"273.2931","FILE":"3244588","ELEMENT_SET_NO":"999","MEAN_MOTION":"15.76731635","MEAN_MOTION_DOT":"0.00012017","DECAY_DATE":null,"CENTER_NAME":"EARTH","GP_ID":"192010980","OBJECT_NAME":"STARLINK-2366","PERIOD":"91.328"},{"OBJECT_TYPE":"PAYLOAD","APOAPSIS":"548.367","REF_FRAME":"TEME","NORAD_CAT_ID":"47907","MEAN_ELEMENT_THEORY":"SGP4","LAUNCH_DATE":"2021-03-14","INCLINATION":"53.0562","MEAN_ANOMALY":"296.2272","MEAN_MOTION_DDOT":"0.0000000000000","EPOCH":"2021-12-19T17:23:39.494688","SEMIMAJOR_AXIS":"6925.345","CLASSIFICATION_TYPE":"U","PERIAPSIS":"546.053","RCS_SIZE":"LARGE","ECCENTRICITY":"0.00016710","TIME_SYSTEM":"UTC","ARG_OF_PERICENTER":"63.8888","OBJECT_ID":"2021-021AZ","REV_AT_EPOCH":"4375","EPHEMERIS_TYPE":"0","SITE":"AFETR","BSTAR":"-0.00000335640000","COUNTRY_CODE":"US","TLE_LINE2":"2 47907  53.0562 359.2850 0001671  63.8888 296.2272 15.06401090 43753","TLE_LINE1":"1 47907U 21021AZ  21353.72476267 -.00000332  00000-0 -33564-5 0  9994","DECAY_DATE":null,"MEAN_MOTION_DOT":"-0.00000332","OBJECT_NAME":"STARLINK-2367","PERIOD":"95.592","CENTER_NAME":"EARTH","GP_ID":"192041566","RA_OF_ASC_NODE":"359.2850","FILE":"3244825","MEAN_MOTION":"15.06401090","ELEMENT_SET_NO":"999"},{"MEAN_ANOMALY":"304.7091","LAUNCH_DATE":"2021-03-14","MEAN_ELEMENT_THEORY":"SGP4","INCLINATION":"53.0575","REF_FRAME":"TEME","NORAD_CAT_ID":"47908","OBJECT_TYPE":"PAYLOAD","APOAPSIS":"548.285","REV_AT_EPOCH":"4378","EPHEMERIS_TYPE":"0","RCS_SIZE":"LARGE","ECCENTRICITY":"0.00015840","TIME_SYSTEM":"UTC","ARG_OF_PERICENTER":"55.4048","OBJECT_ID":"2021-021BA","SEMIMAJOR_AXIS":"6925.323","PERIAPSIS":"546.091","CLASSIFICATION_TYPE":"U","MEAN_MOTION_DDOT":"0.0000000000000","EPOCH":"2021-12-19T17:34:15.835872","TLE_LINE1":"1 47908U 21021BA  21353.73212773  .00001783  00000-0  13854-3 0  9993","TLE_LINE2":"2 47908  53.0575 359.2472 0001584  55.4048 304.7091 15.06408346 43784","BSTAR":"0.00013854000000","COUNTRY_CODE":"US","SITE":"AFETR","MEAN_MOTION":"15.06408346","ELEMENT_SET_NO":"999","RA_OF_ASC_NODE":"359.2472","FILE":"3244825","OBJECT_NAME":"STARLINK-2368","PERIOD":"95.592","CENTER_NAME":"EARTH","GP_ID":"192041316","DECAY_DATE":null,"MEAN_MOTION_DOT":"0.00001783"},{"RA_OF_ASC_NODE":"350.3730","FILE":"3244633","ELEMENT_SET_NO":"999","MEAN_MOTION":"15.06404801","DECAY_DATE":null,"MEAN_MOTION_DOT":"-0.00000464","CENTER_NAME":"EARTH","GP_ID":"192014531","OBJECT_NAME":"STARLINK-2369","PERIOD":"95.592","TLE_LINE2":"2 47909  53.0558 350.3730 0001485  49.3451 310.7667 15.06404801 43413","TLE_LINE1":"1 47909U 21021BB  21353.48241059 -.00000464  00000-0 -12244-4 0  9995","SITE":"AFETR","BSTAR":"-0.00001224400000","COUNTRY_CODE":"US","OBJECT_ID":"2021-021BB","ECCENTRICITY":"0.00014850","TIME_SYSTEM":"UTC","ARG_OF_PERICENTER":"49.3451","RCS_SIZE":"MEDIUM","EPHEMERIS_TYPE":"0","REV_AT_EPOCH":"4341","EPOCH":"2021-12-19T11:34:40.274976","MEAN_MOTION_DDOT":"0.0000000000000","PERIAPSIS":"546.170","CLASSIFICATION_TYPE":"U","SEMIMAJOR_AXIS":"6925.334","MEAN_ELEMENT_THEORY":"SGP4","LAUNCH_DATE":"2021-03-14","INCLINATION":"53.0558","MEAN_ANOMALY":"310.7667","OBJECT_TYPE":"PAYLOAD","APOAPSIS":"548.227","REF_FRAME":"TEME","NORAD_CAT_ID":"47909"},{"TLE_LINE2":"2 47910  53.0554 349.3017 0001965  56.5251 303.5926 15.06413808 43941","TLE_LINE1":"1 47910U 21021BC  21353.71736207  .00005807  00000-0  40826-3 0  9997","SITE":"AFETR","BSTAR":"0.00040826000000","COUNTRY_CODE":"US","RA_OF_ASC_NODE":"349.3017","FILE":"3244825","MEAN_MOTION":"15.06413808","ELEMENT_SET_NO":"999","MEAN_MOTION_DOT":"0.00005807","DECAY_DATE":null,"OBJECT_NAME":"STARLINK-2370","PERIOD":"95.591","CENTER_NAME":"EARTH","GP_ID":"192040314","INCLINATION":"53.0554","LAUNCH_DATE":"2021-03-14","MEAN_ELEMENT_THEORY":"SGP4","MEAN_ANOMALY":"303.5926","OBJECT_TYPE":"PAYLOAD","APOAPSIS":"548.532","REF_FRAME":"TEME","NORAD_CAT_ID":"47910","RCS_SIZE":"LARGE","TIME_SYSTEM":"UTC","ARG_OF_PERICENTER":"56.5251","ECCENTRICITY":"0.00019650","OBJECT_ID":"2021-021BC","REV_AT_EPOCH":"4394","EPHEMERIS_TYPE":"0","MEAN_MOTION_DDOT":"0.0000000000000","EPOCH":"2021-12-19T17:13:00.082848","SEMIMAJOR_AXIS":"6925.306","PERIAPSIS":"545.810","CLASSIFICATION_TYPE":"U"}];
